{
  "type": "FeatureCollection",
  "features": [
    {"type":"Feature","properties":{"name":"Advanced Manufacturing — West Midlands","type":"industrial-strategy-zone","focus":"Advanced manufacturing, automotive, aerospace"},"geometry":{"type":"Polygon","coordinates":[[[-2.15,52.38],[-1.75,52.38],[-1.75,52.62],[-2.15,52.62],[-2.15,52.38]]]}},
    {"type":"Feature","properties":{"name":"Advanced Manufacturing — South Yorkshire","type":"industrial-strategy-zone","focus":"Steel, advanced manufacturing, AMRC"},"geometry":{"type":"Polygon","coordinates":[[[-1.55,53.33],[-1.25,53.33],[-1.25,53.52],[-1.55,53.52],[-1.55,53.33]]]}},
    {"type":"Feature","properties":{"name":"Life Sciences — Oxford–Cambridge Arc","type":"industrial-strategy-zone","focus":"Life sciences, research, biotech"},"geometry":{"type":"Polygon","coordinates":[[[-1.30,51.70],[-0.05,51.70],[-0.05,52.25],[-1.30,52.25],[-1.30,51.70]]]}},
    {"type":"Feature","properties":{"name":"Green Industries — Humber","type":"industrial-strategy-zone","focus":"Offshore wind, hydrogen, carbon capture"},"geometry":{"type":"Polygon","coordinates":[[[-0.40,53.60],[0.10,53.60],[0.10,53.80],[-0.40,53.80],[-0.40,53.60]]]}},
    {"type":"Feature","properties":{"name":"Tech & Digital — Manchester–Salford","type":"industrial-strategy-zone","focus":"Digital, creative, MediaCity"},"geometry":{"type":"Polygon","coordinates":[[[-2.36,53.44],[-2.17,53.44],[-2.17,53.52],[-2.36,53.52],[-2.36,53.44]]]}},
    {"type":"Feature","properties":{"name":"Financial & Professional Services — Leeds","type":"industrial-strategy-zone","focus":"Financial services, professional services"},"geometry":{"type":"Polygon","coordinates":[[[-1.60,53.76],[-1.48,53.76],[-1.48,53.84],[-1.60,53.84],[-1.60,53.76]]]}},
    {"type":"Feature","properties":{"name":"Creative Industries — London East","type":"industrial-strategy-zone","focus":"Creative, tech, Stratford/Olympic Park"},"geometry":{"type":"Polygon","coordinates":[[[-0.03,51.52],[0.03,51.52],[0.03,51.56],[-0.03,51.56],[-0.03,51.52]]]}},
    {"type":"Feature","properties":{"name":"Defence & Aerospace — Bristol/Bath","type":"industrial-strategy-zone","focus":"Aerospace, defence, composites"},"geometry":{"type":"Polygon","coordinates":[[[-2.65,51.35],[-2.35,51.35],[-2.35,51.55],[-2.65,51.55],[-2.65,51.35]]]}},
    {"type":"Feature","properties":{"name":"Maritime & Offshore — Plymouth","type":"industrial-strategy-zone","focus":"Maritime, defence, offshore energy"},"geometry":{"type":"Polygon","coordinates":[[[-4.22,50.34],[-4.05,50.34],[-4.05,50.42],[-4.22,50.42],[-4.22,50.34]]]}},
    {"type":"Feature","properties":{"name":"Nuclear — Sellafield / West Cumbria","type":"industrial-strategy-zone","focus":"Nuclear, energy, decommissioning"},"geometry":{"type":"Polygon","coordinates":[[[-3.60,54.38],[-3.40,54.38],[-3.40,54.52],[-3.60,54.52],[-3.60,54.38]]]}},
    {"type":"Feature","properties":{"name":"Freeport — Teesside","type":"freeport","focus":"Green energy, manufacturing, port logistics"},"geometry":{"type":"Polygon","coordinates":[[[-1.30,54.54],[-1.14,54.54],[-1.14,54.64],[-1.30,54.64],[-1.30,54.54]]]}},
    {"type":"Feature","properties":{"name":"Freeport — Humber","type":"freeport","focus":"Offshore wind supply chain, imports/exports"},"geometry":{"type":"Polygon","coordinates":[[[-0.28,53.70],[-0.08,53.70],[-0.08,53.78],[-0.28,53.78],[-0.28,53.70]]]}},
    {"type":"Feature","properties":{"name":"Freeport — East Midlands","type":"freeport","focus":"Logistics, e-commerce, manufacturing"},"geometry":{"type":"Polygon","coordinates":[[[-1.37,52.80],[-1.25,52.80],[-1.25,52.88],[-1.37,52.88],[-1.37,52.80]]]}},
    {"type":"Feature","properties":{"name":"Freeport — Solent","type":"freeport","focus":"Maritime, aerospace, manufacturing"},"geometry":{"type":"Polygon","coordinates":[[[-1.45,50.87],[-1.28,50.87],[-1.28,50.95],[-1.45,50.95],[-1.45,50.87]]]}},
    {"type":"Feature","properties":{"name":"Freeport — Thames","type":"freeport","focus":"Advanced manufacturing, port logistics"},"geometry":{"type":"Polygon","coordinates":[[[0.35,51.50],[0.55,51.50],[0.55,51.58],[0.35,51.58],[0.35,51.50]]]}},
    {"type":"Feature","properties":{"name":"Freeport — Plymouth & South Devon","type":"freeport","focus":"Marine, offshore, manufacturing"},"geometry":{"type":"Polygon","coordinates":[[[-4.18,50.36],[-4.06,50.36],[-4.06,50.42],[-4.18,50.42],[-4.18,50.36]]]}},
    {"type":"Feature","properties":{"name":"Freeport — Liverpool City Region","type":"freeport","focus":"Logistics, offshore wind supply chain"},"geometry":{"type":"Polygon","coordinates":[[[-3.05,53.38],[-2.88,53.38],[-2.88,53.46],[-3.05,53.46],[-3.05,53.38]]]}},
    {"type":"Feature","properties":{"name":"Investment Zone — South Yorkshire","type":"investment-zone","focus":"Advanced manufacturing, digital"},"geometry":{"type":"Polygon","coordinates":[[[-1.50,53.35],[-1.28,53.35],[-1.28,53.50],[-1.50,53.50],[-1.50,53.35]]]}},
    {"type":"Feature","properties":{"name":"Investment Zone — West Midlands","type":"investment-zone","focus":"Green industries, advanced manufacturing"},"geometry":{"type":"Polygon","coordinates":[[[-2.10,52.40],[-1.80,52.40],[-1.80,52.58],[-2.10,52.58],[-2.10,52.40]]]}},
    {"type":"Feature","properties":{"name":"Investment Zone — Greater Manchester","type":"investment-zone","focus":"Life sciences, digital"},"geometry":{"type":"Polygon","coordinates":[[[-2.30,53.44],[-2.10,53.44],[-2.10,53.54],[-2.30,53.54],[-2.30,53.44]]]}},
    {"type":"Feature","properties":{"name":"Investment Zone — Leeds","type":"investment-zone","focus":"Health tech, digital"},"geometry":{"type":"Polygon","coordinates":[[[-1.58,53.78],[-1.50,53.78],[-1.50,53.84],[-1.58,53.84],[-1.58,53.78]]]}},
    {"type":"Feature","properties":{"name":"Investment Zone — East Midlands","type":"investment-zone","focus":"Green industries, advanced manufacturing"},"geometry":{"type":"Polygon","coordinates":[[[-1.20,52.90],[-0.98,52.90],[-0.98,53.02],[-1.20,53.02],[-1.20,52.90]]]}},
    {"type":"Feature","properties":{"name":"Investment Zone — Tees Valley","type":"investment-zone","focus":"Green energy, net zero"},"geometry":{"type":"Polygon","coordinates":[[[-1.28,54.54],[-1.10,54.54],[-1.10,54.62],[-1.28,54.62],[-1.28,54.54]]]}},
    {"type":"Feature","properties":{"name":"Investment Zone — Liverpool City Region","type":"investment-zone","focus":"Life sciences, digital, green energy"},"geometry":{"type":"Polygon","coordinates":[[[-3.02,53.38],[-2.82,53.38],[-2.82,53.48],[-3.02,53.48],[-3.02,53.38]]]}},
    {"type":"Feature","properties":{"name":"Investment Zone — North East","type":"investment-zone","focus":"Advanced manufacturing, offshore wind"},"geometry":{"type":"Polygon","coordinates":[[[-1.68,54.88],[-1.40,54.88],[-1.40,55.02],[-1.68,55.02],[-1.68,54.88]]]}},
    {"type":"Feature","properties":{"name":"Investment Zone — West Yorkshire","type":"investment-zone","focus":"Health tech, digital, financial"},"geometry":{"type":"Polygon","coordinates":[[[-1.90,53.68],[-1.50,53.68],[-1.50,53.86],[-1.90,53.86],[-1.90,53.68]]]}},
    {"type":"Feature","properties":{"name":"Investment Zone — Plymouth & South Devon","type":"investment-zone","focus":"Marine, technology"},"geometry":{"type":"Polygon","coordinates":[[[-4.20,50.34],[-4.04,50.34],[-4.04,50.44],[-4.20,50.44],[-4.20,50.34]]]}},
    {"type":"Feature","properties":{"name":"Investment Zone — Canary Wharf","type":"investment-zone","focus":"Tech, life sciences, financial"},"geometry":{"type":"Polygon","coordinates":[[[-0.03,51.49],[0.02,51.49],[0.02,51.52],[-0.03,51.52],[-0.03,51.49]]]}},
    {"type":"Feature","properties":{"name":"Freeport — Felixstowe & Harwich","type":"freeport","focus":"Port logistics, manufacturing"},"geometry":{"type":"Polygon","coordinates":[[[1.18,51.94],[1.40,51.94],[1.40,52.00],[1.18,52.00],[1.18,51.94]]]}}
  ]
}
